CCSDS_OMM_VERS = 2.0
CREATION_DATE  = 
ORIGINATOR     = 

OBJECT_NAME    = UNKNOWN
OBJECT_ID      = 
CENTER_NAME    = EARTH
REF_FRAME      = TEME
TIME_SYSTEM    = UTC
MEAN_ELEMENT_THEORY = SGP/SGP4

EPOCH          = 2025-11-01T15:09:44.466624
MEAN_MOTION    = 13.15574703
ECCENTRICITY   = .0459594
INCLINATION    = 66.9348
RA_OF_ASC_NODE = 281.9851
ARG_OF_PERICENTER = 192.2796
MEAN_ANOMALY   = 166.6735

EPHEMERIS_TYPE = 0
CLASSIFICATION_TYPE = U
NORAD_CAT_ID   = 82363
ELEMENT_SET_NO = 999
REV_AT_EPOCH   = 28485
BSTAR          = .91703E-3
MEAN_MOTION_DOT = .53E-5
MEAN_MOTION_DDOT = 0

CCSDS_OMM_VERS = 2.0
CREATION_DATE  = 
ORIGINATOR     = 

OBJECT_NAME    = UNKNOWN
OBJECT_ID      = 
CENTER_NAME    = EARTH
REF_FRAME      = TEME
TIME_SYSTEM    = UTC
MEAN_ELEMENT_THEORY = SGP/SGP4

EPOCH          = 2025-11-03T07:35:02.094144
MEAN_MOTION    = 13.98129916
ECCENTRICITY   = .0084371
INCLINATION    = 98.9015
RA_OF_ASC_NODE = 323.5758
ARG_OF_PERICENTER = 87.9722
MEAN_ANOMALY   = 273.1101

EPHEMERIS_TYPE = 0
CLASSIFICATION_TYPE = U
NORAD_CAT_ID   = 82369
ELEMENT_SET_NO = 999
REV_AT_EPOCH   = 55166
BSTAR          = .14921E-3
MEAN_MOTION_DOT = .177E-5
MEAN_MOTION_DDOT = 0

CCSDS_OMM_VERS = 2.0
CREATION_DATE  = 
ORIGINATOR     = 

OBJECT_NAME    = UNKNOWN
OBJECT_ID      = 
CENTER_NAME    = EARTH
REF_FRAME      = TEME
TIME_SYSTEM    = UTC
MEAN_ELEMENT_THEORY = SGP/SGP4

EPOCH          = 2025-11-06T14:01:31.619136
MEAN_MOTION    = 14.78244060
ECCENTRICITY   = .0008369
INCLINATION    = 98.3977
RA_OF_ASC_NODE = 173.7321
ARG_OF_PERICENTER = 272.1625
MEAN_ANOMALY   = 87.8626

EPHEMERIS_TYPE = 0
CLASSIFICATION_TYPE = U
NORAD_CAT_ID   = 82381
ELEMENT_SET_NO = 999
REV_AT_EPOCH   = 50546
BSTAR          = .46805E-2
MEAN_MOTION_DOT = .34091E-3
MEAN_MOTION_DDOT = 0

CCSDS_OMM_VERS = 2.0
CREATION_DATE  = 
ORIGINATOR     = 

OBJECT_NAME    = UNKNOWN
OBJECT_ID      = 
CENTER_NAME    = EARTH
REF_FRAME      = TEME
TIME_SYSTEM    = UTC
MEAN_ELEMENT_THEORY = SGP/SGP4

EPOCH          = 2025-11-08T02:05:29.460192
MEAN_MOTION    = 15.02864550
ECCENTRICITY   = .0006252
INCLINATION    = 86.6648
RA_OF_ASC_NODE = 170.5568
ARG_OF_PERICENTER = 302.8927
MEAN_ANOMALY   = 57.1705

EPHEMERIS_TYPE = 0
CLASSIFICATION_TYPE = U
NORAD_CAT_ID   = 82402
ELEMENT_SET_NO = 999
REV_AT_EPOCH   = 44926
BSTAR          = .69697E-3
MEAN_MOTION_DOT = .9375E-4
MEAN_MOTION_DDOT = 0

CCSDS_OMM_VERS = 2.0
CREATION_DATE  = 
ORIGINATOR     = 

OBJECT_NAME    = UNKNOWN
OBJECT_ID      = 
CENTER_NAME    = EARTH
REF_FRAME      = TEME
TIME_SYSTEM    = UTC
MEAN_ELEMENT_THEORY = SGP/SGP4

EPOCH          = 2025-10-29T18:12:51.374016
MEAN_MOTION    = 14.58270752
ECCENTRICITY   = .0057022
INCLINATION    = 74.0082
RA_OF_ASC_NODE = 64.4530
ARG_OF_PERICENTER = 239.9565
MEAN_ANOMALY   = 119.5937

EPHEMERIS_TYPE = 0
CLASSIFICATION_TYPE = U
NORAD_CAT_ID   = 82432
ELEMENT_SET_NO = 999
REV_AT_EPOCH   = 47649
BSTAR          = .7969E-3
MEAN_MOTION_DOT = .3737E-4
MEAN_MOTION_DDOT = 0

CCSDS_OMM_VERS = 2.0
CREATION_DATE  = 
ORIGINATOR     = 

OBJECT_NAME    = UNKNOWN
OBJECT_ID      = 
CENTER_NAME    = EARTH
REF_FRAME      = TEME
TIME_SYSTEM    = UTC
MEAN_ELEMENT_THEORY = SGP/SGP4

EPOCH          = 2025-11-08T00:12:56.673792
MEAN_MOTION    = 15.03061658
ECCENTRICITY   = .0011305
INCLINATION    = 85.8740
RA_OF_ASC_NODE = 217.8685
ARG_OF_PERICENTER = 39.7391
MEAN_ANOMALY   = 320.4668

EPHEMERIS_TYPE = 0
CLASSIFICATION_TYPE = U
NORAD_CAT_ID   = 82448
ELEMENT_SET_NO = 999
REV_AT_EPOCH   = 43182
BSTAR          = .77551E-3
MEAN_MOTION_DOT = .10496E-3
MEAN_MOTION_DDOT = 0

CCSDS_OMM_VERS = 2.0
CREATION_DATE  = 
ORIGINATOR     = 

OBJECT_NAME    = UNKNOWN
OBJECT_ID      = 
CENTER_NAME    = EARTH
REF_FRAME      = TEME
TIME_SYSTEM    = UTC
MEAN_ELEMENT_THEORY = SGP/SGP4

EPOCH          = 2025-11-07T19:30:57.303072
MEAN_MOTION    = 12.39699417
ECCENTRICITY   = .0093657
INCLINATION    = 102.1710
RA_OF_ASC_NODE = 268.2140
ARG_OF_PERICENTER = 271.8503
MEAN_ANOMALY   = 87.1835

EPHEMERIS_TYPE = 0
CLASSIFICATION_TYPE = U
NORAD_CAT_ID   = 82453
ELEMENT_SET_NO = 999
REV_AT_EPOCH   = 54173
BSTAR          = .26233E-3
MEAN_MOTION_DOT = -.11E-6
MEAN_MOTION_DDOT = 0

CCSDS_OMM_VERS = 2.0
CREATION_DATE  = 
ORIGINATOR     = 

OBJECT_NAME    = UNKNOWN
OBJECT_ID      = 
CENTER_NAME    = EARTH
REF_FRAME      = TEME
TIME_SYSTEM    = UTC
MEAN_ELEMENT_THEORY = SGP/SGP4

EPOCH          = 2025-10-24T18:33:12.902400
MEAN_MOTION    = 14.22335814
ECCENTRICITY   = .0044906
INCLINATION    = 66.5148
RA_OF_ASC_NODE = 311.0021
ARG_OF_PERICENTER = 40.7381
MEAN_ANOMALY   = 319.7055

EPHEMERIS_TYPE = 0
CLASSIFICATION_TYPE = U
NORAD_CAT_ID   = 82458
ELEMENT_SET_NO = 999
REV_AT_EPOCH   = 60307
BSTAR          = .17103E-2
MEAN_MOTION_DOT = .3765E-4
MEAN_MOTION_DDOT = 0

CCSDS_OMM_VERS = 2.0
CREATION_DATE  = 
ORIGINATOR     = 

OBJECT_NAME    = UNKNOWN
OBJECT_ID      = 
CENTER_NAME    = EARTH
REF_FRAME      = TEME
TIME_SYSTEM    = UTC
MEAN_ELEMENT_THEORY = SGP/SGP4

EPOCH          = 2025-11-04T12:22:48.795456
MEAN_MOTION    = 13.55769572
ECCENTRICITY   = .0043642
INCLINATION    = 99.3607
RA_OF_ASC_NODE = 332.1004
ARG_OF_PERICENTER = 292.5310
MEAN_ANOMALY   = 67.1212

EPHEMERIS_TYPE = 0
CLASSIFICATION_TYPE = U
NORAD_CAT_ID   = 82484
ELEMENT_SET_NO = 999
REV_AT_EPOCH   = 58545
BSTAR          = .30647E-3
MEAN_MOTION_DOT = .173E-5
MEAN_MOTION_DDOT = 0

CCSDS_OMM_VERS = 2.0
CREATION_DATE  = 
ORIGINATOR     = 

OBJECT_NAME    = UNKNOWN
OBJECT_ID      = 
CENTER_NAME    = EARTH
REF_FRAME      = TEME
TIME_SYSTEM    = UTC
MEAN_ELEMENT_THEORY = SGP/SGP4

EPOCH          = 2025-11-06T19:49:40.432224
MEAN_MOTION    = 14.83974455
ECCENTRICITY   = .0005411
INCLINATION    = 74.0085
RA_OF_ASC_NODE = 93.2514
ARG_OF_PERICENTER = 235.4708
MEAN_ANOMALY   = 124.5960

EPHEMERIS_TYPE = 0
CLASSIFICATION_TYPE = U
NORAD_CAT_ID   = 82494
ELEMENT_SET_NO = 999
REV_AT_EPOCH   = 7963
BSTAR          = .25978E-2
MEAN_MOTION_DOT = .21658E-3
MEAN_MOTION_DDOT = 0

CCSDS_OMM_VERS = 2.0
CREATION_DATE  = 
ORIGINATOR     = 

OBJECT_NAME    = UNKNOWN
OBJECT_ID      = 
CENTER_NAME    = EARTH
REF_FRAME      = TEME
TIME_SYSTEM    = UTC
MEAN_ELEMENT_THEORY = SGP/SGP4

EPOCH          = 2025-11-08T01:30:13.922496
MEAN_MOTION    = 14.18058747
ECCENTRICITY   = .0119229
INCLINATION    = 70.9671
RA_OF_ASC_NODE = 77.2197
ARG_OF_PERICENTER = 168.9694
MEAN_ANOMALY   = 191.4089

EPHEMERIS_TYPE = 0
CLASSIFICATION_TYPE = U
NORAD_CAT_ID   = 82500
ELEMENT_SET_NO = 999
REV_AT_EPOCH   = 61403
BSTAR          = .35331E-2
MEAN_MOTION_DOT = .7734E-4
MEAN_MOTION_DDOT = 0

CCSDS_OMM_VERS = 2.0
CREATION_DATE  = 
ORIGINATOR     = 

OBJECT_NAME    = UNKNOWN
OBJECT_ID      = 
CENTER_NAME    = EARTH
REF_FRAME      = TEME
TIME_SYSTEM    = UTC
MEAN_ELEMENT_THEORY = SGP/SGP4

EPOCH          = 2025-11-08T13:24:22.627872
MEAN_MOTION    = 14.33969279
ECCENTRICITY   = .0135645
INCLINATION    = 73.2823
RA_OF_ASC_NODE = 247.2152
ARG_OF_PERICENTER = 14.8460
MEAN_ANOMALY   = 161.4597

EPHEMERIS_TYPE = 0
CLASSIFICATION_TYPE = U
NORAD_CAT_ID   = 82524
ELEMENT_SET_NO = 999
REV_AT_EPOCH   = 57213
BSTAR          = .52776E-2
MEAN_MOTION_DOT = .16333E-3
MEAN_MOTION_DDOT = 0

