UNKNOWN                 
1 82363U          25305.63176466  .00000530  00000+0  91703-3 0  9996
2 82363  66.9348 281.9851 0459594 192.2796 166.6735 13.15574703284853
UNKNOWN                 
1 82369U          25307.31599646  .00000177  00000+0  14921-3 0  9992
2 82369  98.9015 323.5758 0084371  87.9722 273.1101 13.98129916551660
UNKNOWN                 
1 82381U          25310.58439374  .00034091  00000+0  46805-2 0  9997
2 82381  98.3977 173.7321 0008369 272.1625  87.8626 14.78244060505465
UNKNOWN                 
1 82402U          25312.08714653  .00009375  00000+0  69697-3 0  9996
2 82402  86.6648 170.5568 0006252 302.8927  57.1705 15.02864550449260
UNKNOWN                 
1 82432U          25302.75892794  .00003737  00000+0  79690-3 0  9995
2 82432  74.0082  64.4530 0057022 239.9565 119.5937 14.58270752476495
UNKNOWN                 
1 82448U          25312.00898928  .00010496  00000+0  77551-3 0  9990
2 82448  85.8740 217.8685 0011305  39.7391 320.4668 15.03061658431821
UNKNOWN                 
1 82453U          25311.81316323 -.00000011  00000+0  26233-3 0  9992
2 82453 102.1710 268.2140 0093657 271.8503  87.1835 12.39699417541738
UNKNOWN                 
1 82458U          25297.77306600  .00003765  00000+0  17103-2 0  9995
2 82458  66.5148 311.0021 0044906  40.7381 319.7055 14.22335814603072
UNKNOWN                 
1 82484U          25308.51584254  .00000173  00000+0  30647-3 0  9991
2 82484  99.3607 332.1004 0043642 292.5310  67.1212 13.55769572585452
UNKNOWN                 
1 82494U          25310.82616241  .00021658  00000+0  25978-2 0  9992
2 82494  74.0085  93.2514 0005411 235.4708 124.5960 14.83974455 79639
UNKNOWN                 
1 82500U          25312.06266114  .00007734  00000+0  35331-2 0  9991
2 82500  70.9671  77.2197 0119229 168.9694 191.4089 14.18058747614038
UNKNOWN                 
1 82524U          25312.55859523  .00016333  00000+0  52776-2 0  9990
2 82524  73.2823 247.2152 0135645  14.8460 161.4597 14.33969279572132
